STARLINK-33616          
1 63385U 25063Y   25252.99056119  .00035423  00000+0  12018-2 0  9997
2 63385  53.1600 182.4443 0001559 104.7671 255.3503 15.30216503 26898
STARLINK-33571          
1 63386U 25063Z   25253.17172522  .00027499  00000+0  93682-3 0  9997
2 63386  53.1579 181.4113 0001054 110.1632 249.9482 15.30211406 26921
STARLINK-33533          
1 63387U 25063AA  25253.04702575  .00042272  00000+0  10601-2 0  9996
2 63387  53.1584 172.8521 0001037 104.7523 255.3597 15.39642778 27034
STARLINK-33629          
1 63388U 25063AB  25253.28379240  .00041772  00000+0  10478-2 0  9998
2 63388  53.1573 171.4853 0000915  96.1976 263.9133 15.39643217 27126
STARLINK-33656          
1 63389U 25063AC  25253.09800585  .00031332  00000+0  78970-3 0  9992
2 63389  53.1579 172.4581 0001769 148.3146 211.7965 15.39633511 27095
LEMUR-2-BALTO           
1 63395U 25052BH  25252.97976088  .00006105  00000+0  55887-3 0  9997
2 63395  97.7142 145.2962 0001476 175.7544 184.3690 14.95316233 26813
TJS-16                  
1 63397U 25064A   25252.66389468 -.00000107  00000+0  00000+0 0  9998
2 63397   0.3697  79.9261 0001393 236.9709  71.6892  1.00271569  1578
STARLINK-33531          
1 63399U 25065A   25253.43735287  .00027859  00000+0  10174-2 0  9999
2 63399  42.9981  44.9657 0000074 256.9873 103.0970 15.27601833 25273
STARLINK-33652          
1 63400U 25065B   25253.41165190  .00023041  00000+0  84375-3 0  9994
2 63400  43.0031  44.7690 0001257 270.8581  89.2127 15.27598108 25273
STARLINK-33707          
1 63401U 25065C   25253.43350004  .00021269  00000+0  77958-3 0  9996
2 63401  43.0078  44.9418 0004313 283.0558  76.9812 15.27601093 25273
STARLINK-33668          
1 63402U 25065D   25253.45148815  .00024815  00000+0  90773-3 0  9994
2 63402  43.0008  45.0703 0000751 261.2494  98.8272 15.27598437 25275
STARLINK-33676          
1 63403U 25065E   25253.43221408  .00034569  00000+0  12592-2 0  9992
2 63403  43.0026  44.9252 0001841 275.0095  85.0547 15.27597939 25273
STARLINK-33711          
1 63404U 25065F   25253.41039105  .00017983  00000+0  66097-3 0  9993
2 63404  43.0047  44.7650 0003242 299.9922  60.0608 15.27599436 25273
STARLINK-33708          
1 63405U 25065G   25253.43605932  .00029387  00000+0  10719-2 0  9993
2 63405  43.0033  44.9483 0001086 222.9366 137.1401 15.27619675 25272
STARLINK-33690          
1 63406U 25065H   25253.14416211  .00023179  00000+0  84843-3 0  9995
2 63406  43.0056  42.7448 0002306 279.7446  80.3145 15.27607929 25273
STARLINK-33694          
1 63407U 25065J   25253.42835318  .00026970  00000+0  98514-3 0  9992
2 63407  43.0027  44.8868 0001317 251.9787 108.0921 15.27608888 25277
STARLINK-33692          
1 63408U 25065K   25252.75231011  .00035828  00000+0  13041-2 0  9991
2 63408  43.0033  52.7370 0001994 280.4185  79.6441 15.27606646 25125
STARLINK-33693          
1 63409U 25065L   25253.11941284  .00031323  00000+0  11431-2 0  9990
2 63409  43.0029  46.8690 0002030 267.2791  92.7828 15.27574796 25224
STARLINK-33677          
1 63410U 25065M   25253.43863451  .00026409  00000+0  96525-3 0  9993
2 63410  42.9992  44.9622 0000567 295.5131  64.5662 15.27598135 25273
STARLINK-33647          
1 63411U 25065N   25253.42111211  .00033746  00000+0  12296-2 0  9997
2 63411  43.0045  52.6265 0002946 287.1668  72.8861 15.27593866 25188
STARLINK-33645          
1 63412U 25065P   25252.71118577  .00023299  00000+0  85289-3 0  9996
2 63412  43.0033  52.3634 0001389 275.8365  84.2328 15.27604168 25128
STARLINK-33670          
1 63413U 25065Q   25253.43477558  .00033558  00000+0  12225-2 0  9992
2 63413  42.9992  44.9047 0002839 284.1203  75.9333 15.27602584 25270
STARLINK-33644          
1 63414U 25065R   25253.41564596  .00022829  00000+0  83582-3 0  9994
2 63414  43.0030  45.6080 0001097 243.0019 117.0721 15.27608104 25267
STARLINK-33664          
1 63415U 25065S   25253.44248246  .00021804  00000+0  79936-3 0  9999
2 63415  43.0039  44.9565 0001763 255.8369 104.2286 15.27586612 25270
STARLINK-33649          
1 63416U 25065T   25253.42963350  .00027667  00000+0  10102-2 0  9990
2 63416  43.0024  44.8418 0000818 227.7354 132.3428 15.27611870 25278
STARLINK-33535          
1 63417U 25065U   25253.44121222  .00029608  00000+0  10814-2 0  9994
2 63417  42.9937  44.9147 0001189 113.8580 246.2397 15.27573450 25279
STARLINK-33703          
1 63418U 25065V   25253.46175998  .00021254  00000+0  77982-3 0  9995
2 63418  43.0046  45.0903 0000836 248.3522 111.7241 15.27573395 25275
STARLINK-33709          
1 63419U 25065W   25253.46561182  .00019428  00000+0  71343-3 0  9995
2 63419  43.0054  45.1219 0000415 288.8607  71.2200 15.27590480 25271
STARLINK-33698          
1 63420U 25065X   25253.42192630  .00027496  00000+0  10044-2 0  9995
2 63420  43.0016  44.7764 0002117 283.4794  76.5822 15.27597421 25270
STARLINK-33606          
1 63421U 25065Y   25253.43991416  .00026235  00000+0  95898-3 0  9997
2 63421  43.0023  44.9204 0000262 146.5188 213.5680 15.27597046 25273
STARLINK-33686          
1 63422U 25065Z   25253.45018028  .00004186  00000+0  16163-3 0  9998
2 63422  43.0029  44.9950 0001248 250.1669 109.9048 15.27564233 25277
STARLINK-33675          
1 63423U 25065AA  25253.15651863  .00023406  00000+0  85669-3 0  9999
2 63423  43.0050  46.2338 0001717 274.8696  85.1960 15.27607065 25236
STARLINK-33655          
1 63424U 25065AB  25253.14640935  .00038938  00000+0  14180-2 0  9992
2 63424  43.0058  47.0147 0001920 291.0613  69.0034 15.27558440 25222
STARLINK-33608          
1 63425U 25065AC  25253.44761886  .00019851  00000+0  72908-3 0  9991
2 63425  43.0006  44.9602 0001341 272.6016  87.4682 15.27574307 25275
STARLINK-33615          
1 63426U 25065AD  25253.46949372  .00013241  00000+0  49080-3 0  9994
2 63426  43.0046  45.1475 0000721 249.6826 110.3948 15.27514318 25272
2025-067A               
1 63428U 25067A   25253.63752713  .00195087  00000+0  17706-2 0  9996
2 63428  54.9864 185.1926 0003853  86.8685 273.2796 15.66924767 25201
2025-067B               
1 63429U 25067B   25253.63182336  .00008323  00000+0  23532-3 0  9996
2 63429  54.9941 198.9210 0009519   6.5469 353.5682 15.37205206 25013
2025-067C               
1 63430U 25067C   25253.63290755  .00008209  00000+0  23216-3 0  9995
2 63430  54.9946 198.9373 0009382   5.3441 354.7685 15.37215463 25006
2025-067D               
1 63431U 25067D   25253.63420684  .00001568  00000+0  52993-4 0  9998
2 63431  54.9939 198.9514 0007031   5.1775 354.9324 15.37116478 25001
TIANPING-3A 02          
1 63432U 25068A   25253.38427100  .00003826  00000+0  29047-3 0  9994
2 63432  43.0035  88.6490 0239209 347.7986  11.7124 14.83702503 23777
STARLINK-33682          
1 63433U 25069A   25253.31002523  .00069743  00000+0  17357-2 0  9997
2 63433  53.1575 260.6206 0001352  97.7011 262.4147 15.39653508 25788
STARLINK-33710          
1 63434U 25069B   25253.44490229 -.00208762  00000+0 -54000-2 0  9990
2 63434  53.1572 260.0428 0003631 281.2744  78.7852 15.39344495 25807
STARLINK-33733          
1 63435U 25069C   25253.58335648 -.01354878  00000+0 -41507-1 0  9997
2 63435  53.1588 259.3039 0001591  74.6258  15.8658 15.36206306  5901
STARLINK-33638          
1 63436U 25069D   25253.58335648 -.01347637  00000+0 -44659-1 0  9994
2 63436  53.1594 259.2362 0001576  87.6664  37.0702 15.33746352  5908
STARLINK-33726          
1 63437U 25069E   25253.43975922  .01654468  00000+0  34015-1 0  9990
2 63437  53.1574 260.0059 0017224 285.2688  74.6414 15.42541163 25754
STARLINK-33681          
1 63438U 25069F   25253.43088390  .00034184  00000+0  85904-3 0  9996
2 63438  53.1573 259.9498 0001443  82.0122 278.1047 15.39680229 25802
STARLINK-33730          
1 63439U 25069G   25253.41696536  .00033498  00000+0  84331-3 0  9992
2 63439  53.1580 259.8641 0000882  72.6929 287.4172 15.39635850 25808
STARLINK-33743          
1 63440U 25069H   25253.58335648 -.01356938  00000+0 -45843-1 0  9999
2 63440  53.1603 259.1965 0001803  83.6866  61.2508 15.33159201  5909
STARLINK-33715          
1 63441U 25069J   25253.42220912  .00020151  00000+0  69052-3 0  9992
2 63441  53.1593 259.8930 0001246  76.2719 283.8420 15.30204997 25809
STARLINK-33762          
1 63442U 25069K   25253.31466698  .00034400  00000+0  86539-3 0  9995
2 63442  53.1571 260.6478 0001107  87.4822 272.6310 15.39644748 25780
STARLINK-33753          
1 63443U 25069L   25253.29609417  .00041868  00000+0  10495-2 0  9994
2 63443  53.1585 260.5328 0001525  87.3794 272.7385 15.39661067 25775
STARLINK-33747          
1 63444U 25069M   25253.58335648 -.01362427  00000+0 -41526-1 0  9997
2 63444  53.1594 258.9942 0001150  68.1032 177.8342 15.36383415  5901
STARLINK-33659          
1 63445U 25069N   25253.58335648 -.00004133  00000+0 -12748-3 0  9990
2 63445  53.1594 259.3541 0001253  84.9625 338.6608 15.30204570  5595
STARLINK-33746          
1 63446U 25069P   25253.58335648  .00008623  00000+0  30322-3 0  9995
2 63446  53.1605 259.0660 0001275  68.4789 140.4789 15.30166838  5863
STARLINK-33799          
1 63447U 25069Q   25253.30846033  .00017709  00000+0  60832-3 0  9995
2 63447  53.1591 260.6066 0001368  89.5923 270.5235 15.30215097 25677
STARLINK-33797          
1 63448U 25069R   25253.28216350  .00035232  00000+0  88563-3 0  9998
2 63448  53.1583 260.4415 0002803  79.3278 280.8042 15.39655444 25730
STARLINK-33798          
1 63449U 25069S   25253.31162614  .00024244  00000+0  82793-3 0  9996
2 63449  53.1568 260.6128 0000573  61.6300 298.4758 15.30203003 25515
STARLINK-33736          
1 63450U 25069T   25253.58335648 -.01366586  00000+0 -42566-1 0  9999
2 63450  53.1589 258.8427 0001145  52.9460 268.4282 15.35722587  5893
STARLINK-33740          
1 63451U 25069U   25253.58335648 -.00005181  00000+0 -16289-3 0  9995
2 63451  53.1603 259.0290 0002140  69.8487 156.6498 15.30197069  5853
